OSCAR 7 (AO-7)          
1 07530U 74089B   22319.96165784 -.00000027  00000+0  12034-3 0  9998
2 07530 101.9251 300.4102 0012399 110.8326 314.6067 12.53658580196692
PHASE 3B (AO-10)        
1 14129U 83058B   22317.35712507 -.00000283  00000+0  00000+0 0  9998
2 14129  26.6496  71.7499 6028905 122.9022 309.5147  2.05872468268475
UOSAT 2 (UO-11)         
1 14781U 84021B   22319.84572785  .00000988  00000+0  12476-3 0  9996
2 14781  97.6342 300.5302 0008289 173.0363 187.0968 14.83972400 62495
LUSAT (LO-19)           
1 20442U 90005G   22319.88818167  .00000140  00000+0  67770-4 0  9995
2 20442  98.8160 287.2163 0012851  84.7225 275.5425 14.33113007714791
EYESAT A (AO-27)        
1 22825U 93061C   22319.62894529  .00000082  00000+0  49483-4 0  9991
2 22825  98.8718 353.7546 0007947 337.9685  22.1154 14.30210075519769
ITAMSAT (IO-26)         
1 22826U 93061D   22319.89517949  .00000081  00000+0  48844-4 0  9998
2 22826  98.8663 353.8967 0008253 322.0723  37.9876 14.30560545520066
RADIO ROSTO (RS-15)     
1 23439U 94085A   22319.87959731 -.00000039  00000+0  10000-3 0  9999
2 23439  64.8146 260.6930 0167428 246.8550 111.4652 11.27573353148567
JAS-2 (FO-29)           
1 24278U 96046B   22320.01494346 -.00000017  00000+0  21108-4 0  9992
2 24278  98.5142 322.8360 0349286 249.9592 106.3633 13.53124343296356
TECHSAT 1B (GO-32)      
1 25397U 98043D   22319.87281706  .00000084  00000+0  56572-4 0  9996
2 25397  98.8382 270.8690 0002102  56.4271 303.7107 14.23788027264979
ISS (ZARYA)             
1 25544U 98067A   22320.23230743  .00010091  00000+0  18427-3 0  9998
2 25544  51.6437 303.3799 0006892  79.2314  22.3764 15.50034796368767
PCSAT (NO-44)           
1 26931U 01043C   22319.58697512  .00000130  00000+0  81058-4 0  9998
2 26931  67.0531  28.2830 0005224 265.6822  94.3682 14.30763732103026
SAUDISAT 1C (SO-50)     
1 27607U 02058C   22320.06608479  .00000693  00000+0  11459-3 0  9996
2 27607  64.5541 197.8598 0081305 265.6283  93.5527 14.76416184 70960
CUTE-1 (CO-55)          
1 27844U 03031E   22320.00705225  .00000267  00000+0  13931-3 0  9996
2 27844  98.6803 325.4248 0010319  29.0228 331.1521 14.22540024  5450
CUBESAT XI-IV (CO-57)   
1 27848U 03031J   22319.66595762  .00000245  00000+0  13013-3 0  9990
2 27848  98.6844 325.5735 0010476  43.5582 316.6421 14.22084675  5158
MOZHAYETS 4 (RS-22)     
1 27939U 03042A   22320.11091264  .00000977  00000+0  18052-3 0  9993
2 27939  98.2142 101.0118 0013938  90.1421 270.1354 14.67616949 23281
CUBESAT XI-V            
1 28895U 05043F   22319.85830903  .00001027  00000+0  20174-3 0  9993
2 28895  98.1273  89.1123 0016967  28.5684 331.6445 14.64660879909577
FALCONSAT-3             
1 30776U 07006E   22320.12171189  .00100452  00000+0  72279-3 0  9996
2 30776  35.4277 336.8002 0005942 168.4375 191.6500 15.72285343873289
CUTE-1.7+APD II (CO-65) 
1 32785U 08021C   22319.81457883  .00002241  00000+0  23618-3 0  9998
2 32785  97.6786 286.0780 0014373  91.4151 268.8714 14.90235415789026
DELFI-C3 (DO-64)        
1 32789U 08021G   22320.01461650  .00014353  00000+0  70741-3 0  9999
2 32789  97.3284 341.1161 0010429 145.4009 214.7905 15.17999039794988
SEEDS II (CO-66)        
1 32791U 08021J   22319.63720066  .00003106  00000+0  29890-3 0  9990
2 32791  97.6314 291.2501 0014124  50.7214 309.5257 14.93618854789751
YUBILEINY (RS-30)       
1 32953U 08025A   22320.16857626  .00000024  00000+0  10000-3 0  9996
2 32953  82.5005  89.5834 0018607 289.2794  70.6272 12.43115250657189
KKS-1 (KISEKI)          
1 33499U 09002H   22319.81206276  .00000882  00000+0  13490-3 0  9995
2 33499  98.1949 204.1961 0008651 182.4784 177.6384 14.76271605742577
SWISSCUBE               
1 35932U 09051B   22319.60210958  .00000813  00000+0  19128-3 0  9990
2 35932  98.5466 179.6258 0006715 310.2285  49.8324 14.57079040698101
BEESAT-1                
1 35933U 09051C   22320.10602316  .00000615  00000+0  14734-3 0  9999
2 35933  98.5399 181.6607 0005092 325.2318  34.8546 14.57068896698330
ITUPSAT1                
1 35935U 09051E   22319.59840581  .00000655  00000+0  15926-3 0  9998
2 35935  98.5500 181.1550 0007477 327.5950  32.4787 14.56162553697877
XIWANG-1 (HOPE-1)       
1 36122U 09072B   22319.89779510 -.00000033  00000+0  26985-4 0  9995
2 36122 100.2063 285.8244 0007516 358.1987   1.9098 13.16374217620731
JUGNU                   
1 37839U 11058B   22320.11410749  .00000448  00000+0  96303-4 0  9991
2 37839  19.9624 335.5504 0019031  29.7674  11.4735 14.12833376573720
SRMSAT                  
1 37841U 11058D   22319.61903451  .00000417  00000+0  84102-4 0  9994
2 37841  19.9726  61.1497 0011721 204.7587 183.3291 14.10793908572612
M-CUBED & EXP-1 PRIME   
1 37855U 11061F   22320.06631451  .00010299  00000+0  42026-3 0  9999
2 37855 101.7173 159.9723 0144566 327.1047  32.1234 15.15697872604642
STRAND-1                
1 39090U 13009E   22319.78090208  .00000250  00000+0  10187-3 0  9991
2 39090  98.3941 153.9275 0009040 173.6429 186.4873 14.35368522509105
SOMP                    
1 39134U 13015E   22320.01641874  .00020634  00000+0  61969-3 0  9998
2 39134  64.8593 282.8528 0031418 258.7734 100.9868 15.33985697530438
BEESAT-3                
1 39135U 13015F   22319.38360889  .00016540  00000+0  60258-3 0  9992
2 39135  64.8650 325.0432 0036789 262.1377  97.5577 15.27703696529565
BEESAT-2                
1 39136U 13015G   22319.40822130  .00014383  00000+0  55257-3 0  9994
2 39136  64.8741 334.1072 0024997 292.7857  67.0633 15.26373172529407
ZACUBE-1 (TSHEPISOSAT)  
1 39417U 13066B   22319.88345516  .00002001  00000+0  24626-3 0  9992
2 39417  97.6574 284.7504 0055224 268.1891  91.2997 14.83011073485560
GOMX-1                  
1 39430U 13066Q   22320.15189394  .00002435  00000+0  43880-3 0  9993
2 39430  97.7960 218.6086 0146935 286.7147  71.7950 14.60638768478437
CUBEBUG-2 (LO-74)       
1 39440U 13066AA  22319.84410225  .00002542  00000+0  34534-3 0  9993
2 39440  97.7460 271.2189 0078144   1.5955 358.5491 14.77582559482635
FUNCUBE-1 (AO-73)       
1 39444U 13066AE  22319.85173090  .00002601  00000+0  30912-3 0  9996
2 39444  97.6450 287.1537 0053863 255.0820 104.4427 14.84237798483973
UWE-3                   
1 39446U 13066AG  22319.87350140  .00002387  00000+0  30933-3 0  9997
2 39446  97.7067 277.5932 0066767 316.7717  42.8266 14.80193661482857
SPROUT                  
1 39770U 14029E   22319.90249702  .00012023  00000+0  11530-2 0  9991
2 39770  97.9560  78.0995 0007547 312.1904  47.8634 14.93250375460242
UNISAT-6                
1 40012U 14033C   22319.78953569  .00001434  00000+0  21304-3 0  9991
2 40012  97.6617 139.7364 0057683  29.8980 330.5504 14.75353876452294
DUCHIFAT-1              
1 40021U 14033M   22319.83864430  .00003842  00000+0  36493-3 0  9995
2 40021  98.0315 273.0219 0010027 261.0100  98.9984 14.94085151457291
QB50P1                  
1 40025U 14033R   22319.81040220  .00002607  00000+0  26726-3 0  9996
2 40025  97.9733 258.5354 0010254 281.6940  78.3127 14.91325245456318
NUDT-PHONESAT           
1 40900U 15049B   22320.17671876  .00054942  00000+0  11091-2 0  9991
2 40900  97.3890 339.7813 0010225  95.5396 329.6666 15.46278974397967
ZDPS 2A                 
1 40901U 15049C   22320.01566895  .00011896  00000+0  44004-3 0  9991
2 40901  97.4587 328.3975 0011287 159.0074 201.1631 15.27787281396569
ZDPS 2B                 
1 40902U 15049D   22320.22226563  .00017661  00000+0  64359-3 0  9991
2 40902  97.4673 326.5150 0011232 155.2481 269.9436 15.28189027396572
XW-2A                   
1 40903U 15049E   22320.21386895  .00042522  00000+0  48617-3 0  9999
2 40903  97.1574  19.5197 0006169 274.6067 158.4110 15.62033566402875
KAITUO 1A               
1 40904U 15049F   22320.24878649  .00008948  00000+0  42197-3 0  9997
2 40904  97.4988 321.4957 0012461 194.1847 221.1970 15.19644859395903
2015-049G               
1 40905U 15049G   22320.15639000  .00004572  00000+0  23017-3 0  9993
2 40905  97.5204 318.6220 0013761 199.9596 222.4791 15.17628520395613
XW-2C                   
1 40906U 15049H   22320.22038372  .00007537  00000+0  34356-3 0  9999
2 40906  97.4962 322.6145 0013017 180.6013 240.7766 15.20866385395971
XW-2D                   
1 40907U 15049J   22320.16811823  .00008827  00000+0  39118-3 0  9997
2 40907  97.4952 322.6951 0012361 175.2045 247.9104 15.21788969396026
LILACSAT-2              
1 40908U 15049K   22320.22321308  .00004068  00000+0  21006-3 0  9999
2 40908  97.5227 319.4444 0013859 204.3873 288.3839 15.16798739395483
XW-2E                   
1 40909U 15049L   22319.98525528  .00014305  00000+0  54493-3 0  9992
2 40909  97.4644 327.4455 0012095 150.4340 264.7712 15.26761050396507
XW-2F                   
1 40910U 15049M   22320.22984090  .00014078  00000+0  54502-3 0  9994
2 40910  97.4728 326.8622 0012895 151.8580 269.9710 15.26218659396305
XW-2B                   
1 40911U 15049N   22320.26194453  .00008699  00000+0  38711-3 0  9991
2 40911  97.4939 323.3361 0012251 175.6269 197.4416 15.21654673395926
KAITUO 1B               
1 40912U 15049P   22320.16917057  .00015852  00000+0  54998-3 0  9998
2 40912  97.4336 331.1568 0013639 118.9023 305.8220 15.29790341396912
TIANWANG 1A (TW-1A)     
1 40928U 15051D   22320.22018416  .00184913  00000+0  85281-3 0  9990
2 40928  97.0178 343.1222 0006233 141.3745 283.0627 15.83039491402011
LAPAN-A2                
1 40931U 15052B   22320.19460652  .00001179  00000+0  74546-4 0  9999
2 40931   5.9955 166.5687 0012207 158.5734 201.4976 14.76921259385816
E-ST@R-II               
1 41459U 16025D   22320.05432961  .00018773  00000+0  73508-3 0  9997
2 41459  98.1935 136.9565 0135160 113.5848 247.9459 15.17702287360459
AAUSAT 4                
1 41460U 16025E   22320.05993540  .00029295  00000+0  94378-3 0  9993
2 41460  98.1794 144.7714 0109086  83.4959 277.8551 15.26469964361002
